{
  "links" : {
    "next" : "https://api.nasa.gov/neo/rest/v1/feed?start_date=2003-12-09&end_date=2003-12-09&detailed=true&api_key=t0TVs3DtDT2H8Oy2Zy8m2eVrNsAVKAexjcZXUckd",
    "prev" : "https://api.nasa.gov/neo/rest/v1/feed?start_date=2003-12-07&end_date=2003-12-07&detailed=true&api_key=t0TVs3DtDT2H8Oy2Zy8m2eVrNsAVKAexjcZXUckd",
    "self" : "https://api.nasa.gov/neo/rest/v1/feed?start_date=2003-12-08&end_date=2003-12-08&detailed=true&api_key=t0TVs3DtDT2H8Oy2Zy8m2eVrNsAVKAexjcZXUckd"
  },
  "element_count" : 3,
  "near_earth_objects" : {
    "2003-12-08" : [ {
      "links" : {
        "self" : "https://api.nasa.gov/neo/rest/v1/neo/2329437?api_key=t0TVs3DtDT2H8Oy2Zy8m2eVrNsAVKAexjcZXUckd"
      },
      "neo_reference_id" : "2329437",
      "name" : "329437 (2002 OA22)",
      "nasa_jpl_url" : "http://ssd.jpl.nasa.gov/sbdb.cgi?sstr=2329437",
      "absolute_magnitude_h" : 19.4,
      "estimated_diameter" : {
        "kilometers" : {
          "estimated_diameter_min" : 0.3503926411,
          "estimated_diameter_max" : 0.7835017643
        },
        "meters" : {
          "estimated_diameter_min" : 350.3926411083,
          "estimated_diameter_max" : 783.5017643338
        },
        "miles" : {
          "estimated_diameter_min" : 0.2177238258,
          "estimated_diameter_max" : 0.4868452748
        },
        "feet" : {
          "estimated_diameter_min" : 1149.5821926537,
          "estimated_diameter_max" : 2570.543928497
        }
      },
      "is_potentially_hazardous_asteroid" : true,
      "close_approach_data" : [ {
        "close_approach_date" : "2003-12-08",
        "epoch_date_close_approach" : 1070870400000,
        "relative_velocity" : {
          "kilometers_per_second" : "6.0688270093",
          "kilometers_per_hour" : "21847.7772333206",
          "miles_per_hour" : "13575.3591370041"
        },
        "miss_distance" : {
          "astronomical" : "0.2413492034",
          "lunar" : "93.8848419189",
          "kilometers" : "36105328",
          "miles" : "22434810"
        },
        "orbiting_body" : "Earth"
      } ],
      "orbital_data" : {
        "orbit_id" : "149",
        "orbit_determination_date" : "2017-04-06 09:23:36",
        "orbit_uncertainty" : "0",
        "minimum_orbit_intersection" : ".0353752",
        "jupiter_tisserand_invariant" : "6.379",
        "epoch_osculation" : "2458000.5",
        "eccentricity" : ".2430872347465894",
        "semi_major_axis" : ".9354356645687092",
        "inclination" : "6.883238277235984",
        "ascending_node_longitude" : "174.1057392775971",
        "orbital_period" : "330.4603151303454",
        "perihelion_distance" : ".7080431955853634",
        "perihelion_argument" : "318.6446160708852",
        "aphelion_distance" : "1.162828133552055",
        "perihelion_time" : "2457979.141079659966",
        "mean_anomaly" : "23.26818371331268",
        "mean_motion" : "1.089389507656928",
        "equinox" : "J2000"
      }
    }, {
      "links" : {
        "self" : "https://api.nasa.gov/neo/rest/v1/neo/2450259?api_key=t0TVs3DtDT2H8Oy2Zy8m2eVrNsAVKAexjcZXUckd"
      },
      "neo_reference_id" : "2450259",
      "name" : "450259 (2003 WQ7)",
      "nasa_jpl_url" : "http://ssd.jpl.nasa.gov/sbdb.cgi?sstr=2450259",
      "absolute_magnitude_h" : 19.6,
      "estimated_diameter" : {
        "kilometers" : {
          "estimated_diameter_min" : 0.3195618867,
          "estimated_diameter_max" : 0.7145621017
        },
        "meters" : {
          "estimated_diameter_min" : 319.5618867213,
          "estimated_diameter_max" : 714.5621017269
        },
        "miles" : {
          "estimated_diameter_min" : 0.1985664891,
          "estimated_diameter_max" : 0.4440081677
        },
        "feet" : {
          "estimated_diameter_min" : 1048.4314204307,
          "estimated_diameter_max" : 2344.3639258298
        }
      },
      "is_potentially_hazardous_asteroid" : false,
      "close_approach_data" : [ {
        "close_approach_date" : "2003-12-08",
        "epoch_date_close_approach" : 1070870400000,
        "relative_velocity" : {
          "kilometers_per_second" : "8.6315207913",
          "kilometers_per_hour" : "31073.4748485043",
          "miles_per_hour" : "19307.8488579498"
        },
        "miss_distance" : {
          "astronomical" : "0.3912383711",
          "lunar" : "152.1917266846",
          "kilometers" : "58528428",
          "miles" : "36367880"
        },
        "orbiting_body" : "Earth"
      } ],
      "orbital_data" : {
        "orbit_id" : "72",
        "orbit_determination_date" : "2017-04-06 09:20:12",
        "orbit_uncertainty" : "0",
        "minimum_orbit_intersection" : ".192932",
        "jupiter_tisserand_invariant" : "3.888",
        "epoch_osculation" : "2458000.5",
        "eccentricity" : ".4535127144496866",
        "semi_major_axis" : "1.800420152765912",
        "inclination" : "17.79389161606697",
        "ascending_node_longitude" : "38.67193811899794",
        "orbital_period" : "882.3872519734763",
        "perihelion_distance" : ".9839067221351239",
        "perihelion_argument" : "100.078973982449",
        "aphelion_distance" : "2.616933583396701",
        "perihelion_time" : "2458347.899930434946",
        "mean_anomaly" : "218.2663397766993",
        "mean_motion" : ".4079841353043723",
        "equinox" : "J2000"
      }
    }, {
      "links" : {
        "self" : "https://api.nasa.gov/neo/rest/v1/neo/3076547?api_key=t0TVs3DtDT2H8Oy2Zy8m2eVrNsAVKAexjcZXUckd"
      },
      "neo_reference_id" : "3076547",
      "name" : "(2000 WJ10)",
      "nasa_jpl_url" : "http://ssd.jpl.nasa.gov/sbdb.cgi?sstr=3076547",
      "absolute_magnitude_h" : 20.3,
      "estimated_diameter" : {
        "kilometers" : {
          "estimated_diameter_min" : 0.2315021222,
          "estimated_diameter_max" : 0.5176544822
        },
        "meters" : {
          "estimated_diameter_min" : 231.5021222103,
          "estimated_diameter_max" : 517.6544821978
        },
        "miles" : {
          "estimated_diameter_min" : 0.1438487052,
          "estimated_diameter_max" : 0.3216554833
        },
        "feet" : {
          "estimated_diameter_min" : 759.5214226325,
          "estimated_diameter_max" : 1698.3415313737
        }
      },
      "is_potentially_hazardous_asteroid" : false,
      "close_approach_data" : [ {
        "close_approach_date" : "2003-12-08",
        "epoch_date_close_approach" : 1070870400000,
        "relative_velocity" : {
          "kilometers_per_second" : "10.1413496325",
          "kilometers_per_hour" : "36508.8586768495",
          "miles_per_hour" : "22685.1849928457"
        },
        "miss_distance" : {
          "astronomical" : "0.1904010014",
          "lunar" : "74.0659866333",
          "kilometers" : "28483584",
          "miles" : "17698880"
        },
        "orbiting_body" : "Earth"
      } ],
      "orbital_data" : {
        "orbit_id" : "24",
        "orbit_determination_date" : "2017-04-06 09:16:43",
        "orbit_uncertainty" : "0",
        "minimum_orbit_intersection" : ".190346",
        "jupiter_tisserand_invariant" : "3.592",
        "epoch_osculation" : "2458000.5",
        "eccentricity" : ".4587113496017733",
        "semi_major_axis" : "2.068406960531533",
        "inclination" : "16.07365606856018",
        "ascending_node_longitude" : "59.20643910693181",
        "orbital_period" : "1086.556746563496",
        "perihelion_distance" : "1.119605212140411",
        "perihelion_argument" : "42.0815866920553",
        "aphelion_distance" : "3.017208708922654",
        "perihelion_time" : "2458441.992016919272",
        "mean_anomaly" : "213.7240447002737",
        "mean_motion" : ".3313218579136238",
        "equinox" : "J2000"
      }
    } ]
  }
}